[{"OBJECT_NAME":"STARLINK-33840","OBJECT_ID":"2025-085U","EPOCH":"2026-03-09T22:08:24.555552","MEAN_MOTION":15.27586233,"ECCENTRICITY":8.435e-5,"INCLINATION":43.001,"RA_OF_ASC_NODE":29.7618,"ARG_OF_PERICENTER":233.9741,"MEAN_ANOMALY":126.1032,"EPHEMERIS_TYPE":0,"CLASSIFICATION_TYPE":"U","NORAD_CAT_ID":63682,"ELEMENT_SET_NO":999,"REV_AT_EPOCH":4890,"BSTAR":0.000946989,"MEAN_MOTION_DOT":0.00025893,"MEAN_MOTION_DDOT":0},{"OBJECT_NAME":"CZ-6A DEB","OBJECT_ID":"2023-168D","EPOCH":"2026-03-09T19:03:52.964928","MEAN_MOTION":15.28240044,"ECCENTRICITY":0.00013417,"INCLINATION":97.7802,"RA_OF_ASC_NODE":98.3362,"ARG_OF_PERICENTER":174.0661,"MEAN_ANOMALY":186.0594,"EPHEMERIS_TYPE":0,"CLASSIFICATION_TYPE":"U","NORAD_CAT_ID":58202,"ELEMENT_SET_NO":999,"REV_AT_EPOCH":12922,"BSTAR":0.0014474773,"MEAN_MOTION_DOT":0.00039923,"MEAN_MOTION_DDOT":0}]
